[{"OBJECT_NAME":"UTMN 2 (RS27S)","OBJECT_ID":"2023-091AP","EPOCH":"2026-03-09T23:09:07.917408","MEAN_MOTION":15.29495965,"ECCENTRICITY":0.00097379,"INCLINATION":97.5194,"RA_OF_ASC_NODE":134.949,"ARG_OF_PERICENTER":76.0788,"MEAN_ANOMALY":284.1534,"EPHEMERIS_TYPE":0,"CLASSIFICATION_TYPE":"U","NORAD_CAT_ID":57203,"ELEMENT_SET_NO":999,"REV_AT_EPOCH":14936,"BSTAR":0.00056135701,"MEAN_MOTION_DOT":0.00016013,"MEAN_MOTION_DDOT":0},{"OBJECT_NAME":"STARLINK-35474","OBJECT_ID":"2025-259R","EPOCH":"2026-03-09T14:03:22.642272","MEAN_MOTION":15.27586274,"ECCENTRICITY":0.0001422,"INCLINATION":42.9986,"RA_OF_ASC_NODE":275.0808,"ARG_OF_PERICENTER":254.6465,"MEAN_ANOMALY":105.423,"EPHEMERIS_TYPE":0,"CLASSIFICATION_TYPE":"U","NORAD_CAT_ID":66437,"ELEMENT_SET_NO":999,"REV_AT_EPOCH":1947,"BSTAR":0.00094844,"MEAN_MOTION_DOT":0.00025934,"MEAN_MOTION_DDOT":0}]
